BRO-8                   
1 55011U 23001C   26155.12518657  .00035646  00000+0  67590-3 0  9995
2 55011  97.3214 220.1286 0006802 159.1647 200.9882 15.48224718190180
CONNECTA T1.2           
1 55012U 23001D   26154.16330024  .00036638  00000+0  65995-3 0  9998
2 55012  97.3273 224.6155 0006615 139.3460 220.8286 15.49691885190379
BIRKELAND               
1 55015U 23001G   26155.08570608  .00010763  00000+0  27297-3 0  9991
2 55015  97.3347 223.0240 0007885 142.8936 217.2856 15.39839422190338
ION SCV-008             
1 55051U 23001AU  26155.21030162  .00007588  00000+0  27610-3 0  9992
2 55051  97.5704 251.3134 0016103  61.8958 298.3907 15.28413191189356
ION SCV-007             
1 55060U 23001BD  26155.06012498  .00000595  00000+0  90406-4 0  9992
2 55060  97.9010 218.3348 0012841  24.6962 335.4861 14.77541381184316
HUYGENS                 
1 55093U 23001CN  26155.08579253  .00010393  00000+0  26346-3 0  9995
2 55093  97.3252 222.2709 0011075 126.1381 234.0891 15.39829684190352
SHARJAHSAT-1            
1 55104U 23001CZ  26154.99738080  .00020713  00000+0  38983-3 0  9999
2 55104  97.3175 223.5851 0006895 141.6624 218.5118 15.48546112190459
HORUS 1                 
1 55690U 23025A   26155.21379125  .00006568  00000+0  27842-3 0  9996
2 55690  97.3463 230.0802 0001904 131.8627 228.2772 15.23458949182074
HORUS 2                 
1 55844U 23032A   26155.18257051  .00006113  00000+0  26071-3 0  9993
2 55844  97.3536 230.8450 0002029 116.3074 243.8371 15.23281582179505
GLOBAL-19               
1 55982U 23041B   26153.81309494  .00015983  00000+0  41206-3 0  9995
2 55982  42.0025 285.7177 0007391 249.6784 110.3261 15.38861461179713
BRO-9                   
1 56185U 23054H   26154.29918561  .00374870  55170-4  11638-2 0  9990
2 56185  97.2932  71.6576 0007118 124.3069 235.8879 15.91575757176876
ION SCV-010             
1 56192U 23054Q   26154.65314781  .00005424  00000+0  21299-3 0  9990
2 56192  97.3796  44.3272 0011115 249.8362 110.1681 15.26074636174135
TELEOS-2                
1 56310U 23057C   26154.29257712 -.00001889  00000+0 -22141-3 0  9995
2 56310   9.9889 305.3426 0001114 186.5335 173.4864 14.96408330170718
SNIPE 4                 
1 56744U 23072B   26155.17127888  .00023675  00000+0  55965-3 0  9996
2 56744  97.5258   0.7681 0005676  28.5224 331.6332 15.41815171168104
SNIPE 2                 
1 56745U 23072C   26155.18671575  .00029619  00000+0  60371-3 0  9996
2 56745  97.5253   3.7390 0005478  56.8833 303.2941 15.46174329168233
2023-072G               
1 56749U 23072G   26155.21796975  .00031389  00000+0  56401-3 0  9992
2 56749  97.4915   2.5603 0004295  48.6139 311.5480 15.49808752168450
GEISAT PRECURSOR        
1 56934U 23084C   26155.17747166  .00007990  00000+0  24171-3 0  9994
2 56934  97.6214 295.7053 0006205  43.7540 316.4193 15.34466588165532
BLACKJACK ACES-3        
1 56950U 23084U   26154.59480105  .00006511  00000+0  32012-3 0  9995
2 56950  97.6202 289.6853 0003593  73.1821 286.9806 15.18373959165109
BLACKJACK ACES-2        
1 56955U 23084Z   26154.33798861  .00007817  00000+0  38300-3 0  9999
2 56955  97.6196 289.5098 0001819  74.9989 285.1446 15.18428108165073
BLACKJACK ACES-1        
1 56956U 23084AA  26155.11687097  .00008262  00000+0  40460-3 0  9990
2 56956  97.6188 290.0695 0001305  95.5656 264.5727 15.18428766114915
ION SCV-011             
1 56957U 23084AB  26155.04116975  .00006060  00000+0  22001-3 0  9990
2 56957  98.1379 341.1038 0008525  85.2426 274.9785 15.28711477163801
GHOST-3                 
1 56958U 23084AC  26154.97377808  .00018854  00000+0  36922-3 0  9997
2 56958  97.6204 302.8427 0005765 350.6857   9.4284 15.47432981165975
TOMORROW-R2             
1 56962U 23084AG  26152.98993108  .00314044  41566-4  75292-3 0  9998
2 56962  97.5934 315.1284 0004987 253.0499 107.0230 15.96505288166624
AFR-1                   
1 56964U 23084AJ  26155.13924502  .00005037  00000+0  18453-3 0  9990
2 56964  97.6263 291.5186 0011132  32.6155 327.5769 15.28439356165239
METEOR-M2 3             
1 57166U 23091A   26155.17020358  .00000019  00000+0  27162-4 0  9996
2 57166  98.6087 210.4142 0003598 191.2743 168.8355 14.24045698152660
UMKA 1 (RS40S)          
1 57172U 23091G   26155.19723641  .00007009  00000+0  32161-3 0  9990
2 57172  97.5051 213.9455 0013476 158.8466 201.3329 15.20660736162037
2023-091H               
1 57173U 23091H   26155.15524403  .00012525  00000+0  45550-3 0  9997
2 57173  97.5050 218.2442 0010812 153.0730 207.1073 15.28339676162318
2023-091J               
1 57174U 23091J   26155.16721470  .00004712  00000+0  26388-3 0  9999
2 57174  97.5056 208.4497 0013135 186.0932 174.0142 15.13833474161662
CUBEBEL 2 (EU11S)       
1 57175U 23091K   26155.16037355  .00014052  00000+0  50309-3 0  9990
2 57175  97.5053 218.2637 0010817 154.7011 205.4760 15.28827712162311
SITRO-AIS 5 (KATYS)     
1 57176U 23091L   26155.18002660  .00014652  00000+0  51909-3 0  9997
2 57176  97.5062 218.9583 0012514 143.7556 216.4534 15.29142500162358
