OBJECT_NAME,OBJECT_ID,EPOCH,MEAN_MOTION,ECCENTRICITY,INCLINATION,RA_OF_ASC_NODE,ARG_OF_PERICENTER,MEAN_ANOMALY,EPHEMERIS_TYPE,CLASSIFICATION_TYPE,NORAD_CAT_ID,ELEMENT_SET_NO,REV_AT_EPOCH,BSTAR,MEAN_MOTION_DOT,MEAN_MOTION_DDOT
BRO-8,2023-001C,2026-06-04T03:00:16.119648,15.48224718,.0006802,97.3214,220.1286,159.1647,200.9882,0,U,55011,999,19018,.6759E-3,.35646E-3,0
CONNECTA T1.2,2023-001D,2026-06-03T03:55:09.140736,15.49691885,.00066151,97.3273,224.6155,139.3460,220.8286,0,U,55012,999,19037,.65994619E-3,.36638E-3,0
BIRKELAND,2023-001G,2026-06-04T02:03:25.005312,15.39839422,.0007885,97.3347,223.0240,142.8936,217.2856,0,U,55015,999,19033,.27297E-3,.10763E-3,0
ION SCV-008,2023-001AU,2026-06-04T05:02:50.059968,15.28413191,.0016103,97.5704,251.3134,61.8958,298.3907,0,U,55051,999,18935,.2761E-3,.7588E-4,0
ION SCV-007,2023-001BD,2026-06-04T01:26:34.798272,14.77541381,.0012841,97.9010,218.3348,24.6962,335.4861,0,U,55060,999,18431,.90406E-4,.595E-5,0
HUYGENS,2023-001CN,2026-06-04T02:03:32.474592,15.39829684,.0011075,97.3252,222.2709,126.1381,234.0891,0,U,55093,999,19035,.26346E-3,.10393E-3,0
SHARJAHSAT-1,2023-001CZ,2026-06-03T23:56:13.701120,15.48546112,.0006895,97.3175,223.5851,141.6624,218.5118,0,U,55104,999,19045,.38983E-3,.20713E-3,0
HORUS 1,2023-025A,2026-06-04T05:07:51.564000,15.23458949,.0001904,97.3463,230.0802,131.8627,228.2772,0,U,55690,999,18207,.27842E-3,.6568E-4,0
HORUS 2,2023-032A,2026-06-04T04:22:54.092064,15.23281582,.0002029,97.3536,230.8450,116.3074,243.8371,0,U,55844,999,17950,.26071E-3,.6113E-4,0
GLOBAL-19,2023-041B,2026-06-02T19:30:51.402816,15.38861461,.00073919,42.0025,285.7177,249.6784,110.3261,0,U,55982,999,17971,.4120608E-3,.15983E-3,0
BRO-9,2023-054H,2026-06-03T07:10:49.636704,15.91575757,.00071186,97.2932,71.6576,124.3069,235.8879,0,U,56185,999,17687,.11638426E-2,.37487E-2,.55169885E-4
ION SCV-010,2023-054Q,2026-06-03T15:40:31.970784,15.26074636,.0011115,97.3796,44.3272,249.8362,110.1681,0,U,56192,999,17413,.21299E-3,.5424E-4,0
TELEOS-2,2023-057C,2026-06-03T07:01:18.663168,14.96408330,.0001114,9.9889,305.3426,186.5335,173.4864,0,U,56310,999,17071,-.22141E-3,-.1889E-4,0
SNIPE 4,2023-072B,2026-06-04T04:06:38.495232,15.41815171,.0005676,97.5258,0.7681,28.5224,331.6332,0,U,56744,999,16810,.55965E-3,.23675E-3,0
SNIPE 2,2023-072C,2026-06-04T04:28:52.240800,15.46174329,.0005478,97.5253,3.7390,56.8833,303.2941,0,U,56745,999,16823,.60371E-3,.29619E-3,0
2023-072G,2023-072G,2026-06-04T05:13:52.586400,15.49808752,.0004295,97.4915,2.5603,48.6139,311.5480,0,U,56749,999,16845,.56401E-3,.31389E-3,0
GEISAT PRECURSOR,2023-084C,2026-06-04T04:15:33.551424,15.34466588,.0006205,97.6214,295.7053,43.7540,316.4193,0,U,56934,999,16553,.24171E-3,.799E-4,0
BLACKJACK ACES-3,2023-084U,2026-06-03T14:16:30.810720,15.18373959,.0003593,97.6202,289.6853,73.1821,286.9806,0,U,56950,999,16510,.32012E-3,.6511E-4,0
BLACKJACK ACES-2,2023-084Z,2026-06-03T08:06:42.215904,15.18428108,.00018199,97.6196,289.5098,74.9989,285.1446,0,U,56955,999,16507,.38299822E-3,.7817E-4,0
BLACKJACK ACES-1,2023-084AA,2026-06-04T02:48:17.651808,15.18428766,.0001305,97.6188,290.0695,95.5656,264.5727,0,U,56956,999,11491,.4046E-3,.8262E-4,0
ION SCV-011,2023-084AB,2026-06-04T00:59:17.066400,15.28711477,.0008525,98.1379,341.1038,85.2426,274.9785,0,U,56957,999,16380,.22001E-3,.606E-4,0
GHOST-3,2023-084AC,2026-06-03T23:22:14.426112,15.47432981,.0005765,97.6204,302.8427,350.6857,9.4284,0,U,56958,999,16597,.36922E-3,.18854E-3,0
TOMORROW-R2,2023-084AG,2026-06-01T23:45:30.045312,15.96505288,.00049877,97.5934,315.1284,253.0499,107.0230,0,U,56962,999,16662,.75292474E-3,.314044E-2,.41565588E-4
AFR-1,2023-084AJ,2026-06-04T03:20:30.769728,15.28439356,.0011132,97.6263,291.5186,32.6155,327.5769,0,U,56964,999,16523,.18453E-3,.5037E-4,0
METEOR-M2 3,2023-091A,2026-06-04T04:05:05.589312,14.24045698,.0003598,98.6087,210.4142,191.2743,168.8355,0,U,57166,999,15266,.27162E-4,.19E-6,0
UMKA 1 (RS40S),2023-091G,2026-06-04T04:44:01.225824,15.20660736,.0013476,97.5051,213.9455,158.8466,201.3329,0,U,57172,999,16203,.32161E-3,.7009E-4,0
2023-091H,2023-091H,2026-06-04T03:43:33.084192,15.28339676,.0010812,97.5050,218.2442,153.0730,207.1073,0,U,57173,999,16231,.4555E-3,.12525E-3,0
2023-091J,2023-091J,2026-06-04T04:00:47.350080,15.13833474,.0013135,97.5056,208.4497,186.0932,174.0142,0,U,57174,999,16166,.26388E-3,.4712E-4,0
CUBEBEL 2 (EU11S),2023-091K,2026-06-04T03:50:56.274720,15.28827712,.0010817,97.5053,218.2637,154.7011,205.4760,0,U,57175,999,16231,.50309E-3,.14052E-3,0
SITRO-AIS 5 (KATYS),2023-091L,2026-06-04T04:19:14.298240,15.29142500,.0012514,97.5062,218.9583,143.7556,216.4534,0,U,57176,999,16235,.51909E-3,.14652E-3,0
